NORAD_CAT_ID,OBJECT_NAME,OBJECT_TYPE,EPOCH,MEAN_MOTION,ECCENTRICITY,INCLINATION,RA_OF_ASC_NODE,ARG_OF_PERICENTER,MEAN_ANOMALY,BSTAR,MEAN_MOTION_DOT,MEAN_MOTION_DDOT,TLE_LINE0,TLE_LINE1,TLE_LINE2,SEMIMAJOR_AXIS,PERIOD,APOGEE,PERIGEE,DECAYED
49456.0,STARLINK-3124,PAYLOAD,2022-10-15 11:05:34,15.08848745,0.0002406,53.217,31.2144,30.0588,330.0542,0.00010569,1.395e-05,0.0,0 STARLINK-3124,1 49456U 21104BA  22288.46220595  .00001395  00000-0  10569-3 0  9993,2 49456  53.2170  31.2144 0002406  30.0588 330.0542 15.08848745 52463,6917.854,95.437,541.383,538.054,0.0
49456.0,STARLINK-3124,PAYLOAD,2022-10-15 12:40:57,15.08850061,0.0002372,53.2168,30.9171,32.3361,327.7776,0.00013228,1.818e-05,0.0,0 STARLINK-3124,1 49456U 21104BA  22288.52844511  .00001818  00000-0  13228-3 0  9995,2 49456  53.2168  30.9171 0002372  32.3361 327.7776 15.08850061 51401,6917.85,95.437,541.356,538.0740000000002,0.0
49456.0,STARLINK-3124,PAYLOAD,2022-10-15 14:16:20,15.08846912,0.0002356999999999,53.2165,30.6196,32.9295,327.1843,4.0268e-05,3.53e-06,0.0,0 STARLINK-3124,1 49456U 21104BA  22288.59468546  .00000353  00000-0  40268-4 0  9990,2 49456  53.2165  30.6196 0002357  32.9295 327.1843 15.08846912 51417,6917.859,95.437,541.355,538.094,0.0
49456.0,STARLINK-3124,PAYLOAD,2022-10-16 02:59:26,15.08833851,0.0002516,53.2163,28.2384,31.6605,328.4538,-3.0999e-06,-3.38e-06,0.0,0 STARLINK-3124,1 49456U 21104BA  22289.12461153 -.00000338  00000-0 -30999-5 0  9993,2 49456  53.2163  28.2384 0002516  31.6605 328.4538 15.08833851 52565,6917.899,95.438,541.505,538.024,0.0
49456.0,STARLINK-3124,PAYLOAD,2022-10-16 12:31:45,15.08837973,0.0002706999999999,53.2169,26.4575,30.9746,329.1405,4.6145e-05,4.46e-06,0.0,0 STARLINK-3124,1 49456U 21104BA  22289.52205155  .00000446  00000-0  46145-4 0  9992,2 49456  53.2169  26.4575 0002707  30.9746 329.1405 15.08837973 51551,6917.887,95.438,541.624,537.879,0.0
49456.0,STARLINK-3124,PAYLOAD,2022-10-16 14:07:08,15.08840621,0.0002694,53.2169,26.16,31.647,328.4684,8.1692e-05,1.012e-05,0.0,0 STARLINK-3124,1 49456U 21104BA  22289.58829014  .00001012  00000-0  81692-4 0  9990,2 49456  53.2169  26.1600 0002694  31.6470 328.4684 15.08840621 51560,6917.878000000002,95.438,541.607,537.88,0.0
49456.0,STARLINK-3124,PAYLOAD,2022-10-17 02:50:13,15.08841427,0.0002455,53.2171,23.7807,32.1615,327.9526,5.9991e-05,6.67e-06,0.0,0 STARLINK-3124,1 49456U 21104BA  22290.11820946  .00000667  00000-0  59991-4 0  9998,2 49456  53.2171  23.7807 0002455  32.1615 327.9526 15.08841427 52719,6917.876,95.437,541.439,538.043,0.0
49456.0,STARLINK-3124,PAYLOAD,2022-10-17 12:22:32,15.08838264,0.0002354,53.2167,21.9955,36.1625,323.9526,2.3491e-05,8.6e-07,0.0,0 STARLINK-3124,1 49456U 21104BA  22290.51565126  .00000086  00000-0  23491-4 0  9999,2 49456  53.2167  21.9955 0002354  36.1625 323.9526 15.08838264 51700,6917.886,95.438,541.379,538.122,0.0
49456.0,STARLINK-3124,PAYLOAD,2022-10-17 13:57:55,15.08838489,0.0002285,53.2174,21.6982,34.3602,325.7538,2.4636e-05,1.04e-06,0.0,0 STARLINK-3124,1 49456U 21104BA  22290.58189067  .00000104  00000-0  24636-4 0  9995,2 49456  53.2174  21.6982 0002285  34.3602 325.7538 15.08838489 51716,6917.885,95.438,541.331,538.169,0.0
49456.0,STARLINK-3124,PAYLOAD,2022-10-18 07:27:10,15.08820831,0.0002433,53.217,18.4284,32.1328,327.9812,-0.00015519,-2.756e-05,0.0,0 STARLINK-3124,1 49456U 21104BA  22291.31054262 -.00002756  00000-0 -15519-3 0  9991,2 49456  53.2170  18.4284 0002433  32.1328 327.9812 15.08820831 52898,6917.939,95.439,541.487,538.121,0.0
49456.0,STARLINK-3124,PAYLOAD,2022-10-18 12:13:20,15.08823782,0.0002443,53.2171,17.5362,31.5797,328.5341,-9.6499e-05,-1.823e-05,0.0,0 STARLINK-3124,1 49456U 21104BA  22291.50926326 -.00001823  00000-0 -96499-4 0  9992,2 49456  53.2171  17.5362 0002443  31.5797 328.5341 15.08823782 51857,6917.93,95.439,541.485,538.105,0.0
49456.0,STARLINK-3124,PAYLOAD,2022-10-19 02:31:48,15.08835822,0.0002491,53.2171,14.8597,32.3075,327.807,8.112e-05,1.003e-05,0.0,0 STARLINK-3124,1 49456U 21104BA  22292.10542276  .00001003  00000-0  81120-4 0  9990,2 49456  53.2171  14.8597 0002491  32.3075 327.8070 15.08835822 53017,6917.893,95.438,541.481,538.035,0.0
49456.0,STARLINK-3124,PAYLOAD,2022-10-19 12:04:07,15.08839777,0.0002515,53.2169,13.0757,32.9717,327.1432,0.00026092,3.867e-05,0.0,0 STARLINK-3124,1 49456U 21104BA  22292.50286377  .00003867  00000-0  26092-3 0  9997,2 49456  53.2169  13.0757 0002515  32.9717 327.1432 15.08839777 52005,6917.880999999999,95.438,541.486,538.006,0.0
49456.0,STARLINK-3124,PAYLOAD,2022-10-20 11:54:54,15.088538,0.0002579,53.2171,8.6151,33.3709,326.7445,0.00064531,0.00010001,0.0,0 STARLINK-3124,1 49456U 21104BA  22293.49646531  .00010001  00000-0  64531-3 0  9996,2 49456  53.2171   8.6151 0002579  33.3709 326.7445 15.08853800 53229,6917.8380000000025,95.437,541.487,537.919,0.0
49456.0,STARLINK-3124,PAYLOAD,2022-10-21 03:48:45,15.08840284,0.0002744,53.2171,5.6412,25.8921,334.2208,2.8032e-06,-2.44e-06,0.0,0 STARLINK-3124,1 49456U 21104BA  22294.15886473 -.00000244  00000-0  28032-5 0  9998,2 49456  53.2171   5.6412 0002744  25.8921 334.2208 15.08840284 53326,6917.88,95.438,541.643,537.846,0.0
49456.0,STARLINK-3124,PAYLOAD,2022-10-21 11:45:41,15.08844381,0.0002566999999999,53.2172,4.1548,28.37,331.7431,8.8632e-05,1.123e-05,0.0,0 STARLINK-3124,1 49456U 21104BA  22294.49006307  .00001123  00000-0  88632-4 0  9992,2 49456  53.2172   4.1548 0002567  28.3700 331.7431 15.08844381 52306,6917.8669999999975,95.437,541.508,537.956,0.0
49456.0,STARLINK-3124,PAYLOAD,2022-10-22 03:39:32,15.08854473,0.0002611,53.2173,1.1813,30.1798,329.9344,0.00044578,6.816e-05,0.0,0 STARLINK-3124,1 49456U 21104BA  22295.15246002  .00006816  00000-0  44578-3 0  9998,2 49456  53.2173   1.1813 0002611  30.1798 329.9344 15.08854473 53471,6917.8359999999975,95.437,541.507,537.895,0.0
49456.0,STARLINK-3124,PAYLOAD,2022-10-22 10:01:05,15.08845972,0.0002616,53.2173,359.9915,29.2648,330.8491,0.0002439,3.596e-05,0.0,0 STARLINK-3124,1 49456U 21104BA  22295.41742171  .00003596  00000-0  24390-3 0  9997,2 49456  53.2173 359.9915 0002616  29.2648 330.8491 15.08845972 52440,6917.861999999999,95.437,541.5369999999998,537.9169999999998,0.0
49456.0,STARLINK-3124,PAYLOAD,2022-10-22 21:08:46,15.0885954,0.0002757,53.218,357.9091,28.3445,331.7696,0.00059739,9.237e-05,0.0,0 STARLINK-3124,1 49456U 21104BA  22295.88109690  .00009237  00000-0  59739-3 0  9994,2 49456  53.2180 357.9091 0002757  28.3445 331.7696 15.08859540 52513,6917.821,95.436,541.5930000000002,537.778,0.0
49456.0,STARLINK-3124,PAYLOAD,2022-10-22 22:44:09,15.08861615,0.0002409,53.2165,357.6127,30.426,329.6871,0.00063629,9.859e-05,0.0,0 STARLINK-3124,1 49456U 21104BA  22295.94733449  .00009859  00000-0  63629-3 0  9999,2 49456  53.2165 357.6127 0002409  30.4260 329.6871 15.08861615 53592,6917.814,95.436,541.346,538.013,0.0
49456.0,STARLINK-3124,PAYLOAD,2022-10-23 08:16:28,15.08854599,0.0002255999999999,53.2167,355.8279,31.5289,328.5838,0.00024617,3.633e-05,0.0,0 STARLINK-3124,1 49456U 21104BA  22296.34477215  .00003633  00000-0  24617-3 0  9998,2 49456  53.2167 355.8279 0002256  31.5289 328.5838 15.08854599 53656,6917.8359999999975,95.437,541.261,538.14,0.0
49456.0,STARLINK-3124,PAYLOAD,2022-10-23 11:27:14,15.08856417,0.0002352,53.2169,355.2338,30.605,329.5079,0.00026693,3.964e-05,0.0,0 STARLINK-3124,1 49456U 21104BA  22296.47725039  .00003964  00000-0  26693-3 0  9995,2 49456  53.2169 355.2338 0002352  30.6050 329.5079 15.08856417 52604,6917.83,95.437,541.322,538.068,0.0
49456.0,STARLINK-3124,PAYLOAD,2022-10-24 09:42:38,15.08834698,0.0002538,53.2167,351.0701,26.9431,333.1693,-0.00011016,-2.041e-05,0.0,0 STARLINK-3124,1 49456U 21104BA  22297.40461610 -.00002041  00000-0 -11016-3 0  9991,2 49456  53.2167 351.0701 0002538  26.9431 333.1693 15.08834698 53811,6917.897,95.438,541.5169999999998,538.006,0.0
49456.0,STARLINK-3124,PAYLOAD,2022-10-24 12:53:25,15.08836934,0.0002198,53.2181,350.4754,30.547,329.565,1.86e-05,8e-08,0.0,0 STARLINK-3124,1 49456U 21104BA  22297.53709937  .00000008  00000-0  18600-4 0  9998,2 49456  53.2181 350.4754 0002198  30.5470 329.5650 15.08836934 52764,6917.89,95.438,541.275,538.234,0.0
49456.0,STARLINK-3124,PAYLOAD,2022-10-25 03:11:54,15.08831063,0.0002501999999999,53.2172,347.7995,30.1188,329.9948,-6.929999999999999e-05,-1.391e-05,0.0,0 STARLINK-3124,1 49456U 21104BA  22298.13327098 -.00001391  00000-0 -69300-4 0  9990,2 49456  53.2172 347.7995 0002502  30.1188 329.9948 15.08831063 53922,6917.908,95.438,541.504,538.0419999999998,0.0
49456.0,STARLINK-3124,PAYLOAD,2022-10-25 09:33:27,15.08832579,0.0002457,53.2175,346.6103,30.516,329.5975,-4.9432e-05,-1.075e-05,0.0,0 STARLINK-3124,1 49456U 21104BA  22298.39823083 -.00001075  00000-0 -49432-4 0  9996,2 49456  53.2175 346.6103 0002457  30.5160 329.5975 15.08832579 52891,6917.903,95.438,541.4680000000002,538.068,0.0
49456.0,STARLINK-3124,PAYLOAD,2022-10-26 03:02:40,15.08842472,0.0002578,53.2174,343.3392,29.9208,330.1931,4.7516e-05,4.68e-06,0.0,0 STARLINK-3124,1 49456U 21104BA  22299.12686335  .00000468  00000-0  47516-4 0  9999,2 49456  53.2174 343.3392 0002578  29.9208 330.1931 15.08842472 54078,6917.873000000001,95.437,541.521,537.9540000000002,0.0
49456.0,STARLINK-3124,PAYLOAD,2022-10-26 09:24:14,15.08830982,0.000256,53.2177,342.1497,27.8175,332.2953,6.7146e-05,7.8e-06,0.0,0 STARLINK-3124,1 49456U 21104BA  22299.39183199  .00000780  00000-0  67146-4 0  9996,2 49456  53.2177 342.1497 0002560  27.8175 332.2953 15.08830982 54110,6917.908,95.438,541.544,538.002,0.0
49456.0,STARLINK-3124,PAYLOAD,2022-10-26 12:35:01,15.08819662,0.0002861,53.2177,341.5553,30.6012,329.5147,0.00019307,2.784e-05,0.0,0 STARLINK-3124,1 49456U 21104BA  22299.52431722  .00002784  00000-0  19307-3 0  9990,2 49456  53.2177 341.5553 0002861  30.6012 329.5147 15.08819662 53061,6917.943,95.439,541.7869999999998,537.828,0.0
